ONEWEB-0128             
1 47274U 20100S   25181.65387620  .00000433  00000+0  11669-2 0  9995
2 47274  87.8878  60.6147 0002063  84.0332 276.1031 13.12443049218638
ONEWEB-0129             
1 47275U 20100T   25181.93773483 -.00000015  00000+0 -76299-4 0  9993
2 47275  87.8873  60.5015 0002722  59.0374 301.1021 13.12443638218606
ONEWEB-0130             
1 47276U 20100U   25181.88907541  .00000356  00000+0  95509-3 0  9992
2 47276  87.8871  60.5128 0001922  81.2972 278.8374 13.12442079218566
ONEWEB-0131             
1 47277U 20100V   25181.65712625  .00000372  00000+0  99928-3 0  9992
2 47277  87.8875  60.5850 0001897  82.7411 277.3933 13.12442261218577
ONEWEB-0132             
1 47278U 20100W   25182.14373844  .00006345  00000+0  17597-1 0  9990
2 47278  87.8873  60.4887 0001937  90.8874 269.2477 13.12410224218536
ONEWEB-0133             
1 47279U 20100X   25182.15981532 -.00000264  00000+0 -76881-3 0  9990
2 47279  87.8869  60.4631 0001912  83.9565 276.1781 13.12444063218692
ONEWEB-0134             
1 47280U 20100Y   25181.90042669  .00000122  00000+0  30300-3 0  9990
2 47280  87.8867  60.4985 0002098  80.9973 279.1393 13.12442035218633
ONEWEB-0135             
1 47281U 20100Z   25181.71875811  .00000321  00000+0  85595-3 0  9990
2 47281  87.8872  60.5724 0002279  85.9319 274.2070 13.12443852218638
